[{"OBJECT_NAME":"STARLINK-32252","OBJECT_ID":"2024-144T","EPOCH":"2026-03-09T16:34:24.980160","MEAN_MOTION":15.30191369,"ECCENTRICITY":9.932e-5,"INCLINATION":53.1604,"RA_OF_ASC_NODE":216.8161,"ARG_OF_PERICENTER":72.4612,"MEAN_ANOMALY":287.6497,"EPHEMERIS_TYPE":0,"CLASSIFICATION_TYPE":"U","NORAD_CAT_ID":60442,"ELEMENT_SET_NO":999,"REV_AT_EPOCH":8935,"BSTAR":3.9087063e-5,"MEAN_MOTION_DOT":7.99e-6,"MEAN_MOTION_DDOT":0},{"OBJECT_NAME":"OBJECT L","OBJECT_ID":"2024-024L","EPOCH":"2026-03-09T22:36:05.522976","MEAN_MOTION":15.29373491,"ECCENTRICITY":0.00073185,"INCLINATION":97.3169,"RA_OF_ASC_NODE":137.7038,"ARG_OF_PERICENTER":167.6369,"MEAN_ANOMALY":192.5052,"EPHEMERIS_TYPE":0,"CLASSIFICATION_TYPE":"U","NORAD_CAT_ID":58927,"ELEMENT_SET_NO":999,"REV_AT_EPOCH":9318,"BSTAR":0.00043092344,"MEAN_MOTION_DOT":0.00012217,"MEAN_MOTION_DDOT":0}]
